CCSDS_OMM_VERS = 2.0
CREATION_DATE  = 
ORIGINATOR     = 

OBJECT_NAME    = STARLINK-36872
OBJECT_ID      = 2026-037Z
CENTER_NAME    = EARTH
REF_FRAME      = TEME
TIME_SYSTEM    = UTC
MEAN_ELEMENT_THEORY = SGP/SGP4

EPOCH          = 2026-03-11T04:00:00.999936
MEAN_MOTION    = 15.82010302
ECCENTRICITY   = .0001965
INCLINATION    = 42.9989
RA_OF_ASC_NODE = 189.2659
ARG_OF_PERICENTER = 266.9446
MEAN_ANOMALY   = 249.3186

EPHEMERIS_TYPE = 0
CLASSIFICATION_TYPE = U
NORAD_CAT_ID   = 67955
ELEMENT_SET_NO = 999
REV_AT_EPOCH   = 343
BSTAR          = -.15823E-4
MEAN_MOTION_DOT = -.3863E-4
MEAN_MOTION_DDOT = 0

CCSDS_OMM_VERS = 2.0
CREATION_DATE  = 
ORIGINATOR     = 

OBJECT_NAME    = STARLINK-36918
OBJECT_ID      = 2026-037AA
CENTER_NAME    = EARTH
REF_FRAME      = TEME
TIME_SYSTEM    = UTC
MEAN_ELEMENT_THEORY = SGP/SGP4

EPOCH          = 2026-03-11T04:00:00.999936
MEAN_MOTION    = 15.81975977
ECCENTRICITY   = .0001664
INCLINATION    = 42.9989
RA_OF_ASC_NODE = 189.2553
ARG_OF_PERICENTER = 267.3777
MEAN_ANOMALY   = 253.1740

EPHEMERIS_TYPE = 0
CLASSIFICATION_TYPE = U
NORAD_CAT_ID   = 67956
ELEMENT_SET_NO = 999
REV_AT_EPOCH   = 343
BSTAR          = .21991E-3
MEAN_MOTION_DOT = .45932E-3
MEAN_MOTION_DDOT = 0

CCSDS_OMM_VERS = 2.0
CREATION_DATE  = 
ORIGINATOR     = 

OBJECT_NAME    = STARLINK-36829
OBJECT_ID      = 2026-037AB
CENTER_NAME    = EARTH
REF_FRAME      = TEME
TIME_SYSTEM    = UTC
MEAN_ELEMENT_THEORY = SGP/SGP4

EPOCH          = 2026-03-11T04:00:00.999936
MEAN_MOTION    = 15.81987974
ECCENTRICITY   = .0001898
INCLINATION    = 42.9988
RA_OF_ASC_NODE = 189.2775
ARG_OF_PERICENTER = 268.2228
MEAN_ANOMALY   = 243.7782

EPHEMERIS_TYPE = 0
CLASSIFICATION_TYPE = U
NORAD_CAT_ID   = 67957
ELEMENT_SET_NO = 999
REV_AT_EPOCH   = 343
BSTAR          = .12613E-3
MEAN_MOTION_DOT = .2607E-3
MEAN_MOTION_DDOT = 0

CCSDS_OMM_VERS = 2.0
CREATION_DATE  = 
ORIGINATOR     = 

OBJECT_NAME    = STARLINK-36799
OBJECT_ID      = 2026-037AC
CENTER_NAME    = EARTH
REF_FRAME      = TEME
TIME_SYSTEM    = UTC
MEAN_ELEMENT_THEORY = SGP/SGP4

EPOCH          = 2026-03-11T04:00:00.999936
MEAN_MOTION    = 15.81993775
ECCENTRICITY   = .0001842
INCLINATION    = 42.9989
RA_OF_ASC_NODE = 189.2451
ARG_OF_PERICENTER = 267.9111
MEAN_ANOMALY   = 256.9042

EPHEMERIS_TYPE = 0
CLASSIFICATION_TYPE = U
NORAD_CAT_ID   = 67958
ELEMENT_SET_NO = 999
REV_AT_EPOCH   = 343
BSTAR          = .89463E-4
MEAN_MOTION_DOT = .18325E-3
MEAN_MOTION_DDOT = 0

CCSDS_OMM_VERS = 2.0
CREATION_DATE  = 
ORIGINATOR     = 

OBJECT_NAME    = STARLINK-36834
OBJECT_ID      = 2026-037AD
CENTER_NAME    = EARTH
REF_FRAME      = TEME
TIME_SYSTEM    = UTC
MEAN_ELEMENT_THEORY = SGP/SGP4

EPOCH          = 2026-03-11T04:00:00.999936
MEAN_MOTION    = 15.82001577
ECCENTRICITY   = .0001738
INCLINATION    = 42.9988
RA_OF_ASC_NODE = 189.2227
ARG_OF_PERICENTER = 267.5133
MEAN_ANOMALY   = 265.8412

EPHEMERIS_TYPE = 0
CLASSIFICATION_TYPE = U
NORAD_CAT_ID   = 67959
ELEMENT_SET_NO = 999
REV_AT_EPOCH   = 343
BSTAR          = .90415E-4
MEAN_MOTION_DOT = .18533E-3
MEAN_MOTION_DDOT = 0

CCSDS_OMM_VERS = 2.0
CREATION_DATE  = 
ORIGINATOR     = 

OBJECT_NAME    = STARLINK-36841
OBJECT_ID      = 2026-037AE
CENTER_NAME    = EARTH
REF_FRAME      = TEME
TIME_SYSTEM    = UTC
MEAN_ELEMENT_THEORY = SGP/SGP4

EPOCH          = 2026-03-11T04:00:00.999936
MEAN_MOTION    = 15.82016463
ECCENTRICITY   = .0001755
INCLINATION    = 42.9990
RA_OF_ASC_NODE = 189.2337
ARG_OF_PERICENTER = 284.3966
MEAN_ANOMALY   = 244.6783

EPHEMERIS_TYPE = 0
CLASSIFICATION_TYPE = U
NORAD_CAT_ID   = 67960
ELEMENT_SET_NO = 999
REV_AT_EPOCH   = 343
BSTAR          = -.64121E-4
MEAN_MOTION_DOT = -.14014E-3
MEAN_MOTION_DDOT = 0

CCSDS_OMM_VERS = 2.0
CREATION_DATE  = 
ORIGINATOR     = 

OBJECT_NAME    = STARLINK-36912
OBJECT_ID      = 2026-038A
CENTER_NAME    = EARTH
REF_FRAME      = TEME
TIME_SYSTEM    = UTC
MEAN_ELEMENT_THEORY = SGP/SGP4

EPOCH          = 2026-03-11T04:00:00.999936
MEAN_MOTION    = 15.82501119
ECCENTRICITY   = .0001407
INCLINATION    = 97.2756
RA_OF_ASC_NODE = 80.5317
ARG_OF_PERICENTER = 84.8068
MEAN_ANOMALY   = 90.1458

EPHEMERIS_TYPE = 0
CLASSIFICATION_TYPE = U
NORAD_CAT_ID   = 67961
ELEMENT_SET_NO = 999
REV_AT_EPOCH   = 343
BSTAR          = -.91011E-2
MEAN_MOTION_DOT = -.1644073E-1
MEAN_MOTION_DDOT = 0

CCSDS_OMM_VERS = 2.0
CREATION_DATE  = 
ORIGINATOR     = 

OBJECT_NAME    = STARLINK-36881
OBJECT_ID      = 2026-038B
CENTER_NAME    = EARTH
REF_FRAME      = TEME
TIME_SYSTEM    = UTC
MEAN_ELEMENT_THEORY = SGP/SGP4

EPOCH          = 2026-03-11T04:00:00.999936
MEAN_MOTION    = 15.82603807
ECCENTRICITY   = .0001398
INCLINATION    = 97.2755
RA_OF_ASC_NODE = 80.5333
ARG_OF_PERICENTER = 84.3874
MEAN_ANOMALY   = 94.1652

EPHEMERIS_TYPE = 0
CLASSIFICATION_TYPE = U
NORAD_CAT_ID   = 67962
ELEMENT_SET_NO = 999
REV_AT_EPOCH   = 343
BSTAR          = -.91228E-2
MEAN_MOTION_DOT = -.165441E-1
MEAN_MOTION_DDOT = 0

CCSDS_OMM_VERS = 2.0
CREATION_DATE  = 
ORIGINATOR     = 

OBJECT_NAME    = STARLINK-36357
OBJECT_ID      = 2026-038C
CENTER_NAME    = EARTH
REF_FRAME      = TEME
TIME_SYSTEM    = UTC
MEAN_ELEMENT_THEORY = SGP/SGP4

EPOCH          = 2026-03-11T04:00:00.999936
MEAN_MOTION    = 15.82888249
ECCENTRICITY   = .0001429
INCLINATION    = 97.2745
RA_OF_ASC_NODE = 80.5372
ARG_OF_PERICENTER = 86.7658
MEAN_ANOMALY   = 101.8235

EPHEMERIS_TYPE = 0
CLASSIFICATION_TYPE = U
NORAD_CAT_ID   = 67963
ELEMENT_SET_NO = 999
REV_AT_EPOCH   = 343
BSTAR          = -.89691E-2
MEAN_MOTION_DOT = -.1649325E-1
MEAN_MOTION_DDOT = 0

CCSDS_OMM_VERS = 2.0
CREATION_DATE  = 
ORIGINATOR     = 

OBJECT_NAME    = STARLINK-36349
OBJECT_ID      = 2026-038D
CENTER_NAME    = EARTH
REF_FRAME      = TEME
TIME_SYSTEM    = UTC
MEAN_ELEMENT_THEORY = SGP/SGP4

EPOCH          = 2026-03-11T04:00:00.999936
MEAN_MOTION    = 15.82752209
ECCENTRICITY   = .0001482
INCLINATION    = 97.2745
RA_OF_ASC_NODE = 80.5346
ARG_OF_PERICENTER = 85.4365
MEAN_ANOMALY   = 98.1268

EPHEMERIS_TYPE = 0
CLASSIFICATION_TYPE = U
NORAD_CAT_ID   = 67964
ELEMENT_SET_NO = 999
REV_AT_EPOCH   = 343
BSTAR          = -.90963E-2
MEAN_MOTION_DOT = -.1660378E-1
MEAN_MOTION_DDOT = 0

CCSDS_OMM_VERS = 2.0
CREATION_DATE  = 
ORIGINATOR     = 

OBJECT_NAME    = STARLINK-36806
OBJECT_ID      = 2026-038E
CENTER_NAME    = EARTH
REF_FRAME      = TEME
TIME_SYSTEM    = UTC
MEAN_ELEMENT_THEORY = SGP/SGP4

EPOCH          = 2026-03-11T04:00:00.999936
MEAN_MOTION    = 15.83058915
ECCENTRICITY   = .000137
INCLINATION    = 97.2737
RA_OF_ASC_NODE = 80.5392
ARG_OF_PERICENTER = 87.5010
MEAN_ANOMALY   = 106.9380

EPHEMERIS_TYPE = 0
CLASSIFICATION_TYPE = U
NORAD_CAT_ID   = 67965
ELEMENT_SET_NO = 999
REV_AT_EPOCH   = 343
BSTAR          = -.89402E-2
MEAN_MOTION_DOT = -.1656228E-1
MEAN_MOTION_DDOT = 0

CCSDS_OMM_VERS = 2.0
CREATION_DATE  = 
ORIGINATOR     = 

OBJECT_NAME    = STARLINK-36820
OBJECT_ID      = 2026-038F
CENTER_NAME    = EARTH
REF_FRAME      = TEME
TIME_SYSTEM    = UTC
MEAN_ELEMENT_THEORY = SGP/SGP4

EPOCH          = 2026-03-11T04:00:00.999936
MEAN_MOTION    = 15.83195382
ECCENTRICITY   = .0001461
INCLINATION    = 97.2736
RA_OF_ASC_NODE = 80.5415
ARG_OF_PERICENTER = 87.7810
MEAN_ANOMALY   = 111.5359

EPHEMERIS_TYPE = 0
CLASSIFICATION_TYPE = U
NORAD_CAT_ID   = 67966
ELEMENT_SET_NO = 999
REV_AT_EPOCH   = 343
BSTAR          = -.8836E-2
MEAN_MOTION_DOT = -.1648771E-1
MEAN_MOTION_DDOT = 0

CCSDS_OMM_VERS = 2.0
CREATION_DATE  = 
ORIGINATOR     = 

OBJECT_NAME    = STARLINK-36819
OBJECT_ID      = 2026-038G
CENTER_NAME    = EARTH
REF_FRAME      = TEME
TIME_SYSTEM    = UTC
MEAN_ELEMENT_THEORY = SGP/SGP4

EPOCH          = 2026-03-11T04:00:00.999936
MEAN_MOTION    = 15.83348053
ECCENTRICITY   = .0001389
INCLINATION    = 97.2732
RA_OF_ASC_NODE = 80.5432
ARG_OF_PERICENTER = 92.0369
MEAN_ANOMALY   = 112.5503

EPHEMERIS_TYPE = 0
CLASSIFICATION_TYPE = U
NORAD_CAT_ID   = 67967
ELEMENT_SET_NO = 999
REV_AT_EPOCH   = 343
BSTAR          = -.88206E-2
MEAN_MOTION_DOT = -.1656606E-1
MEAN_MOTION_DDOT = 0

CCSDS_OMM_VERS = 2.0
CREATION_DATE  = 
ORIGINATOR     = 

OBJECT_NAME    = STARLINK-36812
OBJECT_ID      = 2026-038H
CENTER_NAME    = EARTH
REF_FRAME      = TEME
TIME_SYSTEM    = UTC
MEAN_ELEMENT_THEORY = SGP/SGP4

EPOCH          = 2026-03-11T04:00:00.999936
MEAN_MOTION    = 15.83473213
ECCENTRICITY   = .0001415
INCLINATION    = 97.2724
RA_OF_ASC_NODE = 80.5443
ARG_OF_PERICENTER = 90.0209
MEAN_ANOMALY   = 119.0303

EPHEMERIS_TYPE = 0
CLASSIFICATION_TYPE = U
NORAD_CAT_ID   = 67968
ELEMENT_SET_NO = 999
REV_AT_EPOCH   = 343
BSTAR          = -.87518E-2
MEAN_MOTION_DOT = -.1653921E-1
MEAN_MOTION_DDOT = 0

CCSDS_OMM_VERS = 2.0
CREATION_DATE  = 
ORIGINATOR     = 

OBJECT_NAME    = STARLINK-36709
OBJECT_ID      = 2026-038J
CENTER_NAME    = EARTH
REF_FRAME      = TEME
TIME_SYSTEM    = UTC
MEAN_ELEMENT_THEORY = SGP/SGP4

EPOCH          = 2026-03-11T04:00:00.999936
MEAN_MOTION    = 15.83778380
ECCENTRICITY   = .0001424
INCLINATION    = 97.2722
RA_OF_ASC_NODE = 80.5492
ARG_OF_PERICENTER = 87.8232
MEAN_ANOMALY   = 132.0241

EPHEMERIS_TYPE = 0
CLASSIFICATION_TYPE = U
NORAD_CAT_ID   = 67969
ELEMENT_SET_NO = 999
REV_AT_EPOCH   = 343
BSTAR          = -.85675E-2
MEAN_MOTION_DOT = -.1644264E-1
MEAN_MOTION_DDOT = 0

